{"type": "FeatureCollection", "features": [ {"type": "Feature", "properties": {"norad_id": 45344, "name": "BEIDOU-3 G2 (C60)", "group": "gnss", "lat": -2.3116279064820318, "lon": -23.87175894466139, "alt_km": 35769.30564019807, "timestamp": "2025-12-12T11:38:31.655225+00:00", "meta": {"OBJECT_NAME": "BEIDOU-3 G2 (C60)", "OBJECT_ID": "2020-017A", "EPOCH": "2025-12-12T03:35:21.389568", "MEAN_MOTION": 1.00272955, "ECCENTRICITY": 0.0004441, "INCLINATION": 2.4966, "RA_OF_ASC_NODE": 43.8382, "ARG_OF_PERICENTER": 266.1378, "MEAN_ANOMALY": 264.9892, "EPHEMERIS_TYPE": 0, "CLASSIFICATION_TYPE": "U", "NORAD_CAT_ID": 45344, "ELEMENT_SET_NO": 999, "REV_AT_EPOCH": 2138, "BSTAR": 0, "MEAN_MOTION_DOT": -1.32e-06, "MEAN_MOTION_DDOT": 0}, "tle": {"line1": "1 45344U 20017A   25346.14955312 -.00000132  00000+0  00000+0 0  9995", "line2": "2 45344   2.4966  43.8382 0004441 266.1378 264.9892  1.00272955 21388"}}, "geometry": {"type": "Point", "coordinates": [-23.87175894466139, -2.3116279064820318]}}, {"type": "Feature", "properties": {"norad_id": 45358, "name": "COSMOS 2545 (760)", "group": "gnss", "lat": 17.938985076116175, "lon": -32.13329227520041, "alt_km": 19147.87052147995, "timestamp": "2025-12-12T11:38:31.655238+00:00", "meta": {"OBJECT_NAME": "COSMOS 2545 (760)", "OBJECT_ID": "2020-018A", "EPOCH": "2025-12-10T13:58:04.872576", "MEAN_MOTION": 2.13102273, "ECCENTRICITY": 0.00118432, "INCLINATION": 64.471, "RA_OF_ASC_NODE": 319.0455, "ARG_OF_PERICENTER": 248.8319, "MEAN_ANOMALY": 111.0396, "EPHEMERIS_TYPE": 0, "CLASSIFICATION_TYPE": "U", "NORAD_CAT_ID": 45358, "ELEMENT_SET_NO": 999, "REV_AT_EPOCH": 4464, "BSTAR": 0, "MEAN_MOTION_DOT": -5.2e-07, "MEAN_MOTION_DDOT": 0}, "tle": {"line1": "1 45358U 20018A   25344.58200084 -.00000052  00000+0  00000+0 0  9997", "line2": "2 45358  64.4710 319.0455 0011843 248.8319 111.0396  2.13102273 44648"}}, "geometry": {"type": "Point", "coordinates": [-32.13329227520041, 17.938985076116175]}}, {"type": "Feature", "properties": {"norad_id": 45807, "name": "BEIDOU-3 G3 (C61)", "group": "gnss", "lat": -1.7141144331429663, "lon": 6.620463599614531, "alt_km": 35760.5326975772, "timestamp": "2025-12-12T11:38:31.655249+00:00", "meta": {"OBJECT_NAME": "BEIDOU-3 G3 (C61)", "OBJECT_ID": "2020-040A", "EPOCH": "2025-12-08T17:33:17.532288", "MEAN_MOTION": 1.00275813, "ECCENTRICITY": 0.00060306, "INCLINATION": 1.9816, "RA_OF_ASC_NODE": 66.5886, "ARG_OF_PERICENTER": 306.262, "MEAN_ANOMALY": 78.7159, "EPHEMERIS_TYPE": 0, "CLASSIFICATION_TYPE": "U", "NORAD_CAT_ID": 45807, "ELEMENT_SET_NO": 999, "REV_AT_EPOCH": 2016, "BSTAR": 0, "MEAN_MOTION_DOT": -3.52e-06, "MEAN_MOTION_DDOT": 0}, "tle": {"line1": "1 45807U 20040A   25342.73145292 -.00000352  00000+0  00000+0 0  9998", "line2": "2 45807   1.9816  66.5886 0006030 306.2620  78.7159  1.00275813 20161"}}, "geometry": {"type": "Point", "coordinates": [6.620463599614531, -1.7141144331429663]}}, {"type": "Feature", "properties": {"norad_id": 45854, "name": "GPS BIII-3  (PRN 23)", "group": "gnss", "lat": 16.484251942159236, "lon": -155.0628794861281, "alt_km": 20063.21539552287, "timestamp": "2025-12-12T11:38:31.655261+00:00", "meta": {"OBJECT_NAME": "GPS BIII-3  (PRN 23)", "OBJECT_ID": "2020-041A", "EPOCH": "2025-12-11T05:23:02.925024", "MEAN_MOTION": 2.00561914, "ECCENTRICITY": 0.006046, "INCLINATION": 56.5461, "RA_OF_ASC_NODE": 36.2442, "ARG_OF_PERICENTER": 203.3747, "MEAN_ANOMALY": 126.9066, "EPHEMERIS_TYPE": 0, "CLASSIFICATION_TYPE": "U", "NORAD_CAT_ID": 45854, "ELEMENT_SET_NO": 999, "REV_AT_EPOCH": 4026, "BSTAR": 0, "MEAN_MOTION_DOT": -9.4e-07, "MEAN_MOTION_DDOT": 0}, "tle": {"line1": "1 45854U 20041A   25345.22433941 -.00000094  00000+0  00000+0 0  9992", "line2": "2 45854  56.5461  36.2442 0060460 203.3747 126.9066  2.00561914 40268"}}, "geometry": {"type": "Point", "coordinates": [-155.0628794861281, 16.484251942159236]}}, {"type": "Feature", "properties": {"norad_id": 46114, "name": "GALAXY 30 (WAAS/PRN 135)", "group": "gnss", "lat": 0.0146463290472984, "lon": 131.04003297368016, "alt_km": 35791.97855807254, "timestamp": "2025-12-12T11:38:31.655273+00:00", "meta": {"OBJECT_NAME": "GALAXY 30 (WAAS/PRN 135)", "OBJECT_ID": "2020-056C", "EPOCH": "2025-12-12T04:02:38.642784", "MEAN_MOTION": 1.00272734, "ECCENTRICITY": 0.0002253, "INCLINATION": 0.0165, "RA_OF_ASC_NODE": 336.288, "ARG_OF_PERICENTER": 285.2065, "MEAN_ANOMALY": 115.287, "EPHEMERIS_TYPE": 0, "CLASSIFICATION_TYPE": "U", "NORAD_CAT_ID": 46114, "ELEMENT_SET_NO": 999, "REV_AT_EPOCH": 1941, "BSTAR": 0, "MEAN_MOTION_DOT": 4.6e-07, "MEAN_MOTION_DDOT": 0}, "tle": {"line1": "1 46114U 20056C   25346.16850281  .00000046  00000+0  00000+0 0  9998", "line2": "2 46114   0.0165 336.2880 0002253 285.2065 115.2870  1.00272734 19415"}}, "geometry": {"type": "Point", "coordinates": [131.04003297368016, 0.0146463290472984]}}, {"type": "Feature", "properties": {"norad_id": 46805, "name": "COSMOS 2547 (705K)", "group": "gnss", "lat": -48.25334202100529, "lon": 50.88051117299916, "alt_km": 19119.49353986159, "timestamp": "2025-12-12T11:38:31.655287+00:00", "meta": {"OBJECT_NAME": "COSMOS 2547 (705K)", "OBJECT_ID": "2020-075A", "EPOCH": "2025-12-08T21:25:56.196192", "MEAN_MOTION": 2.13099854, "ECCENTRICITY": 0.00063847, "INCLINATION": 64.5958, "RA_OF_ASC_NODE": 198.8249, "ARG_OF_PERICENTER": 229.7163, "MEAN_ANOMALY": 130.3027, "EPHEMERIS_TYPE": 0, "CLASSIFICATION_TYPE": "U", "NORAD_CAT_ID": 46805, "ELEMENT_SET_NO": 999, "REV_AT_EPOCH": 3985, "BSTAR": 0, "MEAN_MOTION_DOT": 4.5e-07, "MEAN_MOTION_DDOT": 0}, "tle": {"line1": "1 46805U 20075A   25342.89301153  .00000045  00000+0  00000+0 0  9990", "line2": "2 46805  64.5958 198.8249 0006384 229.7163 130.3027  2.13099854 39856"}}, "geometry": {"type": "Point", "coordinates": [50.88051117299916, -48.25334202100529]}}, {"type": "Feature", "properties": {"norad_id": 46826, "name": "GPS BIII-4  (PRN 14)", "group": "gnss", "lat": 37.75812166668178, "lon": 4.13800824794478, "alt_km": 20124.953945557445, "timestamp": "2025-12-12T11:38:31.655298+00:00", "meta": {"OBJECT_NAME": "GPS BIII-4  (PRN 14)", "OBJECT_ID": "2020-078A", "EPOCH": "2025-12-11T12:08:25.039104", "MEAN_MOTION": 2.0056681, "ECCENTRICITY": 0.00646308, "INCLINATION": 54.0154, "RA_OF_ASC_NODE": 218.391, "ARG_OF_PERICENTER": 203.3565, "MEAN_ANOMALY": 301.1266, "EPHEMERIS_TYPE": 0, "CLASSIFICATION_TYPE": "U", "NORAD_CAT_ID": 46826, "ELEMENT_SET_NO": 999, "REV_AT_EPOCH": 3774, "BSTAR": 0, "MEAN_MOTION_DOT": 1e-07, "MEAN_MOTION_DDOT": 0}, "tle": {"line1": "1 46826U 20078A   25345.50584536  .00000010  00000+0  00000+0 0  9997", "line2": "2 46826  54.0154 218.3910 0064630 203.3565 301.1266  2.00566810 37742"}}, "geometry": {"type": "Point", "coordinates": [4.13800824794478, 37.75812166668178]}}, {"type": "Feature", "properties": {"norad_id": 48859, "name": "GPS BIII-5  (PRN 11)", "group": "gnss", "lat": -33.934661249719156, "lon": -47.87429830561985, "alt_km": 20179.862883510454, "timestamp": "2025-12-12T11:38:31.655309+00:00", "meta": {"OBJECT_NAME": "GPS BIII-5  (PRN 11)", "OBJECT_ID": "2021-054A", "EPOCH": "2025-12-08T04:14:32.423424", "MEAN_MOTION": 2.00553627, "ECCENTRICITY": 0.0024678, "INCLINATION": 55.2581, "RA_OF_ASC_NODE": 340.1367, "ARG_OF_PERICENTER": 233.3994, "MEAN_ANOMALY": 212.8593, "EPHEMERIS_TYPE": 0, "CLASSIFICATION_TYPE": "U", "NORAD_CAT_ID": 48859, "ELEMENT_SET_NO": 999, "REV_AT_EPOCH": 3292, "BSTAR": 0, "MEAN_MOTION_DOT": -8.6e-07, "MEAN_MOTION_DDOT": 0}, "tle": {"line1": "1 48859U 21054A   25342.17676416 -.00000086  00000+0  00000+0 0  9993", "line2": "2 48859  55.2581 340.1367 0024678 233.3994 212.8593  2.00553627 32922"}}, "geometry": {"type": "Point", "coordinates": [-47.87429830561985, -33.934661249719156]}}, {"type": "Feature", "properties": {"norad_id": 49336, "name": "QZS-1R (QZSS/PRN 196)", "group": "gnss", "lat": -25.63815667438984, "lon": 42.955368707925494, "alt_km": 33362.787103769915, "timestamp": "2025-12-12T11:38:31.655321+00:00", "meta": {"OBJECT_NAME": "QZS-1R (QZSS/PRN 196)", "OBJECT_ID": "2021-096A", "EPOCH": "2025-12-11T14:11:56.112288", "MEAN_MOTION": 1.00257955, "ECCENTRICITY": 0.0755122, "INCLINATION": 37.0772, "RA_OF_ASC_NODE": 82.3759, "ARG_OF_PERICENTER": 271.3113, "MEAN_ANOMALY": 74.6905, "EPHEMERIS_TYPE": 0, "CLASSIFICATION_TYPE": "U", "NORAD_CAT_ID": 49336, "ELEMENT_SET_NO": 999, "REV_AT_EPOCH": 1512, "BSTAR": 0, "MEAN_MOTION_DOT": -2.7e-06, "MEAN_MOTION_DDOT": 0}, "tle": {"line1": "1 49336U 21096A   25345.59162167 -.00000270  00000+0  00000+0 0  9997", "line2": "2 49336  37.0772  82.3759 0755122 271.3113  74.6905  1.00257955 15121"}}, "geometry": {"type": "Point", "coordinates": [42.955368707925494, -25.63815667438984]}}, {"type": "Feature", "properties": {"norad_id": 49809, "name": "GSAT0223 (GALILEO 27)", "group": "gnss", "lat": 14.03613915814949, "lon": -4.010718830810149, "alt_km": 23228.32587186147, "timestamp": "2025-12-12T11:38:31.655333+00:00", "meta": {"OBJECT_NAME": "GSAT0223 (GALILEO 27)", "OBJECT_ID": "2021-116A", "EPOCH": "2025-12-10T02:39:25.687008", "MEAN_MOTION": 1.70475768, "ECCENTRICITY": 0.000463, "INCLINATION": 57.2198, "RA_OF_ASC_NODE": 346.7831, "ARG_OF_PERICENTER": 251.6037, "MEAN_ANOMALY": 107.9349, "EPHEMERIS_TYPE": 0, "CLASSIFICATION_TYPE": "U", "NORAD_CAT_ID": 49809, "ELEMENT_SET_NO": 999, "REV_AT_EPOCH": 2495, "BSTAR": 0, "MEAN_MOTION_DOT": -8.7e-07, "MEAN_MOTION_DDOT": 0}, "tle": {"line1": "1 49809U 21116A   25344.11071397 -.00000087  00000+0  00000+0 0  9992", "line2": "2 49809  57.2198 346.7831 0004630 251.6037 107.9349  1.70475768 24951"}}, "geometry": {"type": "Point", "coordinates": [-4.010718830810149, 14.03613915814949]}}]}